{
  "type": "FeatureCollection",
  "features": [
    {
      "type": "Feature",
      "properties": {
        "norad_id": 39227,
        "name": "ARIRANG-5 (KOMPSAT-5)",
        "group": "resource",
        "lat": 6.999784899562804,
        "lon": 4.017674292309576,
        "alt_km": 556.8106929123778,
        "timestamp": "2025-12-24T22:42:21.679136+00:00",
        "meta_object_name": "ARIRANG-5 (KOMPSAT-5)",
        "meta_object_id": "2013-042A",
        "meta_epoch": "2025-12-24T07:34:27.706080",
        "meta_mean_motion": 15.04479275,
        "meta_eccentricity": 0.00030443,
        "meta_inclination": 97.6162,
        "meta_ra_of_asc_node": 182.455,
        "meta_arg_of_pericenter": 35.2409,
        "meta_mean_anomaly": 324.9018,
        "meta_ephemeris_type": 0,
        "meta_classification_type": "U",
        "meta_norad_cat_id": 39227,
        "meta_element_set_no": 999,
        "meta_rev_at_epoch": 67756,
        "meta_bstar": 0.00015027893,
        "meta_mean_motion_dot": 2.042e-05,
        "meta_mean_motion_ddot": 0,
        "tle_line1": "1 39227U 13042A   25358.31559845  .00002042  00000+0  15028-3 0  9992",
        "tle_line2": "2 39227  97.6162 182.4550 0003044  35.2409 324.9018 15.04479275677567"
      },
      "geometry": {
        "type": "Point",
        "coordinates": [
          4.017674292309576,
          6.999784899562804
        ]
      }
    },
    {
      "type": "Feature",
      "properties": {
        "norad_id": 39418,
        "name": "SKYSAT-A",
        "group": "resource",
        "lat": 41.30572105566988,
        "lon": -124.65151843559516,
        "alt_km": 519.1211579047304,
        "timestamp": "2025-12-24T22:42:21.679147+00:00",
        "meta_object_name": "SKYSAT-A",
        "meta_object_id": "2013-066C",
        "meta_epoch": "2025-12-24T03:01:54.975936",
        "meta_mean_motion": 15.11683099,
        "meta_eccentricity": 0.00215517,
        "meta_inclination": 97.4086,
        "meta_ra_of_asc_node": 47.9884,
        "meta_arg_of_pericenter": 195.4454,
        "meta_mean_anomaly": 164.6122,
        "meta_ephemeris_type": 0,
        "meta_classification_type": "U",
        "meta_norad_cat_id": 39418,
        "meta_element_set_no": 999,
        "meta_rev_at_epoch": 66202,
        "meta_bstar": 0.00020315901,
        "meta_mean_motion_dot": 3.412e-05,
        "meta_mean_motion_ddot": 0,
        "tle_line1": "1 39418U 13066C   25358.12633074  .00003412  00000+0  20316-3 0  9994",
        "tle_line2": "2 39418  97.4086  47.9884 0021551 195.4454 164.6122 15.11683099662028"
      },
      "geometry": {
        "type": "Point",
        "coordinates": [
          -124.65151843559516,
          41.30572105566988
        ]
      }
    },
    {
      "type": "Feature",
      "properties": {
        "norad_id": 39419,
        "name": "DUBAISAT-2",
        "group": "resource",
        "lat": 40.911923243617736,
        "lon": 175.48577410930503,
        "alt_km": 542.5634065997892,
        "timestamp": "2025-12-24T22:42:21.679157+00:00",
        "meta_object_name": "DUBAISAT-2",
        "meta_object_id": "2013-066D",
        "meta_epoch": "2025-12-24T06:10:21.641088",
        "meta_mean_motion": 15.08466099,
        "meta_eccentricity": 0.00099263,
        "meta_inclination": 97.4459,
        "meta_ra_of_asc_node": 348.3103,
        "meta_arg_of_pericenter": 276.4624,
        "meta_mean_anomaly": 83.5475,
        "meta_ephemeris_type": 0,
        "meta_classification_type": "U",
        "meta_norad_cat_id": 39419,
        "meta_element_set_no": 999,
        "meta_rev_at_epoch": 66000,
        "meta_bstar": 0.00050275046,
        "meta_mean_motion_dot": 7.783e-05,
        "meta_mean_motion_ddot": 0,
        "tle_line1": "1 39419U 13066D   25358.25719492  .00007783  00000+0  50275-3 0  9990",
        "tle_line2": "2 39419  97.4459 348.3103 0009926 276.4624  83.5475 15.08466099660007"
      },
      "geometry": {
        "type": "Point",
        "coordinates": [
          175.48577410930503,
          40.911923243617736
        ]
      }
    },
    {
      "type": "Feature",
      "properties": {
        "norad_id": 39574,
        "name": "GPM-CORE",
        "group": "resource",
        "lat": 63.398721219474105,
        "lon": -77.0984923076792,
        "alt_km": 430.63790115756274,
        "timestamp": "2025-12-24T22:42:21.679168+00:00",
        "meta_object_name": "GPM-CORE",
        "meta_object_id": "2014-009C",
        "meta_epoch": "2025-12-24T02:04:37.374816",
        "meta_mean_motion": 15.44634912,
        "meta_eccentricity": 0.00091613,
        "meta_inclination": 64.9724,
        "meta_ra_of_asc_node": 174.683,
        "meta_arg_of_pericenter": 250.1065,
        "meta_mean_anomaly": 109.9089,
        "meta_ephemeris_type": 0,
        "meta_classification_type": "U",
        "meta_norad_cat_id": 39574,
        "meta_element_set_no": 999,
        "meta_rev_at_epoch": 67076,
        "meta_bstar": 0.00018893016,
        "meta_mean_motion_dot": 8.614e-05,
        "meta_mean_motion_ddot": 0,
        "tle_line1": "1 39574U 14009C   25358.08654369  .00008614  00000+0  18893-3 0  9996",
        "tle_line2": "2 39574  64.9724 174.6830 0009161 250.1065 109.9089 15.44634912670768"
      },
      "geometry": {
        "type": "Point",
        "coordinates": [
          -77.0984923076792,
          63.398721219474105
        ]
      }
    },
    {
      "type": "Feature",
      "properties": {
        "norad_id": 39634,
        "name": "SENTINEL-1A",
        "group": "resource",
        "lat": 51.80048007936593,
        "lon": -165.46109226272222,
        "alt_km": 690.3055359971859,
        "timestamp": "2025-12-24T22:42:21.679178+00:00",
        "meta_object_name": "SENTINEL-1A",
        "meta_object_id": "2014-016A",
        "meta_epoch": "2025-12-24T07:18:46.764288",
        "meta_mean_motion": 14.59201659,
        "meta_eccentricity": 0.00012604,
        "meta_inclination": 98.1797,
        "meta_ra_of_asc_node": 3.375,
        "meta_arg_of_pericenter": 84.603,
        "meta_mean_anomaly": 275.5313,
        "meta_ephemeris_type": 0,
        "meta_classification_type": "U",
        "meta_norad_cat_id": 39634,
        "meta_element_set_no": 999,
        "meta_rev_at_epoch": 62451,
        "meta_bstar": 2.8287172e-05,
        "meta_mean_motion_dot": 8.8e-07,
        "meta_mean_motion_ddot": 0,
        "tle_line1": "1 39634U 14016A   25358.30470792  .00000088  00000+0  28287-4 0  9998",
        "tle_line2": "2 39634  98.1797   3.3750 0001260  84.6030 275.5313 14.59201659624512"
      },
      "geometry": {
        "type": "Point",
        "coordinates": [
          -165.46109226272222,
          51.80048007936593
        ]
      }
    },
    {
      "type": "Feature",
      "properties": {
        "norad_id": 39731,
        "name": "KAZEOSAT 1",
        "group": "resource",
        "lat": 68.4713334172069,
        "lon": 48.74341139239063,
        "alt_km": 744.2168124059044,
        "timestamp": "2025-12-24T22:42:21.679188+00:00",
        "meta_object_name": "KAZEOSAT 1",
        "meta_object_id": "2014-024A",
        "meta_epoch": "2025-12-24T07:23:42.232416",
        "meta_mean_motion": 14.42069055,
        "meta_eccentricity": 0.00012129,
        "meta_inclination": 98.342,
        "meta_ra_of_asc_node": 69.9556,
        "meta_arg_of_pericenter": 97.4767,
        "meta_mean_anomaly": 262.656,
        "meta_ephemeris_type": 0,
        "meta_classification_type": "U",
        "meta_norad_cat_id": 39731,
        "meta_element_set_no": 999,
        "meta_rev_at_epoch": 61335,
        "meta_bstar": 0.00010622717,
        "meta_mean_motion_dot": 3.06e-06,
        "meta_mean_motion_ddot": 0,
        "tle_line1": "1 39731U 14024A   25358.30812769  .00000306  00000+0  10623-3 0  9996",
        "tle_line2": "2 39731  98.3420  69.9556 0001212  97.4767 262.6560 14.42069055613358"
      },
      "geometry": {
        "type": "Point",
        "coordinates": [
          48.74341139239063,
          68.4713334172069
        ]
      }
    },
    {
      "type": "Feature",
      "properties": {
        "norad_id": 39766,
        "name": "ALOS-2",
        "group": "resource",
        "lat": 24.479999882417033,
        "lon": -82.74611722105138,
        "alt_km": 629.8655208112868,
        "timestamp": "2025-12-24T22:42:21.679198+00:00",
        "meta_object_name": "ALOS-2",
        "meta_object_id": "2014-029A",
        "meta_epoch": "2025-12-24T05:46:30.881280",
        "meta_mean_motion": 14.79473009,
        "meta_eccentricity": 0.00013768,
        "meta_inclination": 97.9227,
        "meta_ra_of_asc_node": 92.9233,
        "meta_arg_of_pericenter": 98.2531,
        "meta_mean_anomaly": 261.8836,
        "meta_ephemeris_type": 0,
        "meta_classification_type": "U",
        "meta_norad_cat_id": 39766,
        "meta_element_set_no": 999,
        "meta_rev_at_epoch": 62571,
        "meta_bstar": 0.00029772971,
        "meta_mean_motion_dot": 2.173e-05,
        "meta_mean_motion_ddot": 0,
        "tle_line1": "1 39766U 14029A   25358.24063520  .00002173  00000+0  29773-3 0  9995",
        "tle_line2": "2 39766  97.9227  92.9233 0001376  98.2531 261.8836 14.79473009625711"
      },
      "geometry": {
        "type": "Point",
        "coordinates": [
          -82.74611722105138,
          24.479999882417033
        ]
      }
    }
  ]
}